CCSDS_OMM_VERS = 2.0
CREATION_DATE  = 
ORIGINATOR     = 

OBJECT_NAME    = SL-3 R/B
OBJECT_ID      = 1982-079B
CENTER_NAME    = EARTH
REF_FRAME      = TEME
TIME_SYSTEM    = UTC
MEAN_ELEMENT_THEORY = SGP/SGP4

EPOCH          = 2026-03-07T02:34:52.247424
MEAN_MOTION    = 15.24749804
ECCENTRICITY   = .0024959
INCLINATION    = 81.1479
RA_OF_ASC_NODE = 196.1250
ARG_OF_PERICENTER = 173.3011
MEAN_ANOMALY   = 186.8562

EPHEMERIS_TYPE = 0
CLASSIFICATION_TYPE = U
NORAD_CAT_ID   = 13403
ELEMENT_SET_NO = 999
REV_AT_EPOCH   = 37730
BSTAR          = .35801E-3
MEAN_MOTION_DOT = .8972E-4
MEAN_MOTION_DDOT = 0

CCSDS_OMM_VERS = 2.0
CREATION_DATE  = 
ORIGINATOR     = 

OBJECT_NAME    = SL-14 R/B
OBJECT_ID      = 1982-092B
CENTER_NAME    = EARTH
REF_FRAME      = TEME
TIME_SYSTEM    = UTC
MEAN_ELEMENT_THEORY = SGP/SGP4

EPOCH          = 2026-03-06T06:40:17.311296
MEAN_MOTION    = 14.86662436
ECCENTRICITY   = .00192042
INCLINATION    = 82.5700
RA_OF_ASC_NODE = 144.5903
ARG_OF_PERICENTER = 315.6120
MEAN_ANOMALY   = 104.2493

EPHEMERIS_TYPE = 0
CLASSIFICATION_TYPE = U
NORAD_CAT_ID   = 13553
ELEMENT_SET_NO = 999
REV_AT_EPOCH   = 32842
BSTAR          = .70757614E-4
MEAN_MOTION_DOT = .654E-5
MEAN_MOTION_DDOT = 0

CCSDS_OMM_VERS = 2.0
CREATION_DATE  = 
ORIGINATOR     = 

OBJECT_NAME    = SL-3 R/B
OBJECT_ID      = 1983-010B
CENTER_NAME    = EARTH
REF_FRAME      = TEME
TIME_SYSTEM    = UTC
MEAN_ELEMENT_THEORY = SGP/SGP4

EPOCH          = 2026-03-06T21:55:43.235040
MEAN_MOTION    = 15.46230407
ECCENTRICITY   = .0018217
INCLINATION    = 81.1067
RA_OF_ASC_NODE = 5.6498
ARG_OF_PERICENTER = 60.1010
MEAN_ANOMALY   = 300.2041

EPHEMERIS_TYPE = 0
CLASSIFICATION_TYPE = U
NORAD_CAT_ID   = 13819
ELEMENT_SET_NO = 999
REV_AT_EPOCH   = 35751
BSTAR          = .39689E-3
MEAN_MOTION_DOT = .19687E-3
MEAN_MOTION_DDOT = 0

CCSDS_OMM_VERS = 2.0
CREATION_DATE  = 
ORIGINATOR     = 

OBJECT_NAME    = SL-3 R/B
OBJECT_ID      = 1983-075B
CENTER_NAME    = EARTH
REF_FRAME      = TEME
TIME_SYSTEM    = UTC
MEAN_ELEMENT_THEORY = SGP/SGP4

EPOCH          = 2026-03-07T03:36:28.366848
MEAN_MOTION    = 15.38339493
ECCENTRICITY   = .0019916
INCLINATION    = 97.6142
RA_OF_ASC_NODE = 70.6312
ARG_OF_PERICENTER = 235.6705
MEAN_ANOMALY   = 124.2655

EPHEMERIS_TYPE = 0
CLASSIFICATION_TYPE = U
NORAD_CAT_ID   = 14208
ELEMENT_SET_NO = 999
REV_AT_EPOCH   = 32976
BSTAR          = .35361E-3
MEAN_MOTION_DOT = .13373E-3
MEAN_MOTION_DDOT = 0

CCSDS_OMM_VERS = 2.0
CREATION_DATE  = 
ORIGINATOR     = 

OBJECT_NAME    = COSMOS 1536
OBJECT_ID      = 1984-013A
CENTER_NAME    = EARTH
REF_FRAME      = TEME
TIME_SYSTEM    = UTC
MEAN_ELEMENT_THEORY = SGP/SGP4

EPOCH          = 2026-03-07T03:48:48.879648
MEAN_MOTION    = 15.23783060
ECCENTRICITY   = .0012627
INCLINATION    = 82.5427
RA_OF_ASC_NODE = 110.3662
ARG_OF_PERICENTER = 293.5723
MEAN_ANOMALY   = 66.4187

EPHEMERIS_TYPE = 0
CLASSIFICATION_TYPE = U
NORAD_CAT_ID   = 14699
ELEMENT_SET_NO = 999
REV_AT_EPOCH   = 27223
BSTAR          = .26753E-3
MEAN_MOTION_DOT = .6482E-4
MEAN_MOTION_DDOT = 0

CCSDS_OMM_VERS = 2.0
CREATION_DATE  = 
ORIGINATOR     = 

OBJECT_NAME    = SL-14 R/B
OBJECT_ID      = 1984-027B
CENTER_NAME    = EARTH
REF_FRAME      = TEME
TIME_SYSTEM    = UTC
MEAN_ELEMENT_THEORY = SGP/SGP4

EPOCH          = 2026-03-06T23:59:29.608800
MEAN_MOTION    = 14.85972773
ECCENTRICITY   = .0017581
INCLINATION    = 82.5383
RA_OF_ASC_NODE = 247.5363
ARG_OF_PERICENTER = 347.0800
MEAN_ANOMALY   = 12.9963

EPHEMERIS_TYPE = 0
CLASSIFICATION_TYPE = U
NORAD_CAT_ID   = 14820
ELEMENT_SET_NO = 999
REV_AT_EPOCH   = 24723
BSTAR          = .65151E-4
MEAN_MOTION_DOT = .594E-5
MEAN_MOTION_DDOT = 0

CCSDS_OMM_VERS = 2.0
CREATION_DATE  = 
ORIGINATOR     = 

OBJECT_NAME    = SL-8 R/B
OBJECT_ID      = 1985-006B
CENTER_NAME    = EARTH
REF_FRAME      = TEME
TIME_SYSTEM    = UTC
MEAN_ELEMENT_THEORY = SGP/SGP4

EPOCH          = 2026-03-07T00:34:48.998208
MEAN_MOTION    = 14.37780032
ECCENTRICITY   = .0018557
INCLINATION    = 74.0432
RA_OF_ASC_NODE = 266.0538
ARG_OF_PERICENTER = 184.4732
MEAN_ANOMALY   = 289.6073

EPHEMERIS_TYPE = 0
CLASSIFICATION_TYPE = U
NORAD_CAT_ID   = 15483
ELEMENT_SET_NO = 999
REV_AT_EPOCH   = 15364
BSTAR          = .78809E-4
MEAN_MOTION_DOT = .211E-5
MEAN_MOTION_DDOT = 0

CCSDS_OMM_VERS = 2.0
CREATION_DATE  = 
ORIGINATOR     = 

OBJECT_NAME    = SL-12 R/B(2)
OBJECT_ID      = 1985-042D
CENTER_NAME    = EARTH
REF_FRAME      = TEME
TIME_SYSTEM    = UTC
MEAN_ELEMENT_THEORY = SGP/SGP4

EPOCH          = 2026-03-07T03:54:43.125696
MEAN_MOTION    = 14.21981684
ECCENTRICITY   = .0033385
INCLINATION    = 71.1062
RA_OF_ASC_NODE = 93.0674
ARG_OF_PERICENTER = 132.3034
MEAN_ANOMALY   = 295.3190

EPHEMERIS_TYPE = 0
CLASSIFICATION_TYPE = U
NORAD_CAT_ID   = 15772
ELEMENT_SET_NO = 999
REV_AT_EPOCH   = 11403
BSTAR          = .39497E-4
MEAN_MOTION_DOT = .4E-6
MEAN_MOTION_DDOT = 0

CCSDS_OMM_VERS = 2.0
CREATION_DATE  = 
ORIGINATOR     = 

OBJECT_NAME    = SL-14 R/B
OBJECT_ID      = 1985-069B
CENTER_NAME    = EARTH
REF_FRAME      = TEME
TIME_SYSTEM    = UTC
MEAN_ELEMENT_THEORY = SGP/SGP4

EPOCH          = 2026-03-06T23:38:45.306240
MEAN_MOTION    = 14.86429044
ECCENTRICITY   = .0018233
INCLINATION    = 82.5280
RA_OF_ASC_NODE = 27.4756
ARG_OF_PERICENTER = 196.8188
MEAN_ANOMALY   = 163.2426

EPHEMERIS_TYPE = 0
CLASSIFICATION_TYPE = U
NORAD_CAT_ID   = 15945
ELEMENT_SET_NO = 999
REV_AT_EPOCH   = 17243
BSTAR          = .74619E-4
MEAN_MOTION_DOT = .685E-5
MEAN_MOTION_DDOT = 0

CCSDS_OMM_VERS = 2.0
CREATION_DATE  = 
ORIGINATOR     = 

OBJECT_NAME    = SL-16 R/B
OBJECT_ID      = 1985-097B
CENTER_NAME    = EARTH
REF_FRAME      = TEME
TIME_SYSTEM    = UTC
MEAN_ELEMENT_THEORY = SGP/SGP4

EPOCH          = 2026-03-06T09:17:43.725696
MEAN_MOTION    = 14.16599577
ECCENTRICITY   = .00099677
INCLINATION    = 71.0034
RA_OF_ASC_NODE = 147.5065
ARG_OF_PERICENTER = 263.7562
MEAN_ANOMALY   = 167.3141

EPHEMERIS_TYPE = 0
CLASSIFICATION_TYPE = U
NORAD_CAT_ID   = 16182
ELEMENT_SET_NO = 999
REV_AT_EPOCH   = 8676
BSTAR          = -.37692816E-4
MEAN_MOTION_DOT = -.123E-5
MEAN_MOTION_DDOT = 0

CCSDS_OMM_VERS = 2.0
CREATION_DATE  = 
ORIGINATOR     = 

OBJECT_NAME    = SL-14 R/B
OBJECT_ID      = 1986-006B
CENTER_NAME    = EARTH
REF_FRAME      = TEME
TIME_SYSTEM    = UTC
MEAN_ELEMENT_THEORY = SGP/SGP4

EPOCH          = 2026-03-07T00:43:38.828064
MEAN_MOTION    = 14.86810288
ECCENTRICITY   = .0075095
INCLINATION    = 82.5234
RA_OF_ASC_NODE = 262.2409
ARG_OF_PERICENTER = 281.8007
MEAN_ANOMALY   = 77.4793

EPHEMERIS_TYPE = 0
CLASSIFICATION_TYPE = U
NORAD_CAT_ID   = 16496
ELEMENT_SET_NO = 999
REV_AT_EPOCH   = 14881
BSTAR          = .76284E-4
MEAN_MOTION_DOT = .741E-5
MEAN_MOTION_DDOT = 0

CCSDS_OMM_VERS = 2.0
CREATION_DATE  = 
ORIGINATOR     = 

OBJECT_NAME    = COSMOS 1743
OBJECT_ID      = 1986-034A
CENTER_NAME    = EARTH
REF_FRAME      = TEME
TIME_SYSTEM    = UTC
MEAN_ELEMENT_THEORY = SGP/SGP4

EPOCH          = 2026-03-07T01:46:08.361696
MEAN_MOTION    = 15.58334046
ECCENTRICITY   = .0001816
INCLINATION    = 82.5295
RA_OF_ASC_NODE = 76.5761
ARG_OF_PERICENTER = 315.7122
MEAN_ANOMALY   = 44.3988

EPHEMERIS_TYPE = 0
CLASSIFICATION_TYPE = U
NORAD_CAT_ID   = 16719
ELEMENT_SET_NO = 999
REV_AT_EPOCH   = 17984
BSTAR          = .51438E-3
MEAN_MOTION_DOT = .39159E-3
MEAN_MOTION_DDOT = 0

